*******************************************************************************
JPL/HORIZONS                       1 Ceres                 2019-Dec-26 16:05:10
Rec #:       1 (+COV) Soln.date: 2019-Jun-05_16:22:15   # obs: 1002 (1995-2019)
 
IAU76/J2000 helio. ecliptic osc. elements (au, days, deg., period=Julian yrs):
 
  EPOCH=  2454033.5 ! 2006-Oct-25.00 (TDB)         Residual RMS= .22345
   EC= .07987906346370539  QR= 2.544709153978707   TP= 2453193.6614275328
   OM= 80.40846590069125   W=  73.1893463033331    IN= 10.58671483589909
   A= 2.76562466186023     MA= 179.9741090118086   ADIST= 2.986540169741752
   PER= 4.59937            N= .214296068           ANGMOM= .028515965
   DAN= 2.68593            DDN= 2.81296            L= 153.3235262
   B= 10.1294158           MOID= 1.57962           TP= 2004-Jul-07.1614275328
 
Asteroid physical parameters (km, seconds, rotational period in hours):
   GM= 62.6284             RAD= 469.7              ROTPER= 9.07417
   H= 3.34                 G= .120                 B-V= .713
                           ALBEDO= .090            STYP= C
 
ASTEROID comments: 
1: soln ref.= JPL#46, OCC=0           radar(60 delay, 0 Dop.)
2: source=ORB
*******************************************************************************
 

 

*******************************************************************************
Ephemeris / WWW_USER Thu Dec 26 16:05:10 2019 Pasadena, USA      / Horizons    
*******************************************************************************
Target body name: 1 Ceres                         {source: JPL#46}
Center body name: Sun (10)                        {source: DE431}
Center-site name: BODY CENTER
*******************************************************************************
Start time      : A.D. 2019-Dec-26 00:00:00.0000 TDB
Stop  time      : A.D. 2020-Jan-25 00:00:00.0000 TDB
Step-size       : 1440 minutes
*******************************************************************************
Center geodetic : 0.00000000,0.00000000,0.0000000 {E-lon(deg),Lat(deg),Alt(km)}
Center cylindric: 0.00000000,0.00000000,0.0000000 {E-lon(deg),Dxy(km),Dz(km)}
Center radii    : 696000.0 x 696000.0 x 696000.0 k{Equator, meridian, pole}    
Keplerian GM    : 1.3271244004193930E+11 km^3/s^2
Small perturbers: Yes                             {source: SB431-N16}
Output units    : KM-S, deg                                                    
Output type     : GEOMETRIC osculating elements
Output format   : 10
Reference frame : ICRF/J2000.0                                                 
Coordinate systm: Ecliptic and Mean Equinox of Reference Epoch                 
*******************************************************************************
Initial IAU76/J2000 heliocentric ecliptic osculating elements (au, days, deg.):
  EPOCH=  2454033.5 ! 2006-Oct-25.00 (TDB)         Residual RMS= .22345        
   EC= .07987906346370539  QR= 2.544709153978707   TP= 2453193.6614275328      
   OM= 80.40846590069125   W=  73.1893463033331    IN= 10.58671483589909       
  Equivalent ICRF heliocentric equatorial cartesian coordinates (au, au/d):
   X= 2.626536679271237E+00  Y=-1.003038764756320E+00  Z=-1.007293591158815E+00
  VX= 4.202952273775981E-03 VY= 8.054172339518143E-03 VZ= 2.938175156440994E-03
Asteroid physical parameters (km, seconds, rotational period in hours):        
   GM= 62.6284             RAD= 469.7              ROTPER= 9.07417             
   H= 3.34                 G= .120                 B-V= .713                   
                           ALBEDO= .090            STYP= C                     
*******************************************************************************
            JDTDB,            Calendar Date (TDB),                     EC,                     QR,                     IN,                     OM,                      W,                     Tp,                      N,                     MA,                     TA,                      A,                     AD,                     PR,
**************************************************************************************************************************************************************************************************************************************************************************************************************************************************
$$SOE
2458859.500000000, A.D. 2020-Jan-11 00:00:00.0000,  7.692362651881283E-02,  3.823970570927917E+08,  1.059106997576479E+01,  8.030050177516193E+01,  7.380130545856173E+01, -5.350832491308028E+07,  2.475500909729756E-06,  1.324599070004456E+02,  1.385543405275602E+02,  4.142637251678993E+08,  4.461303932430069E+08,  1.454251131902433E+08,
2458860.500000000, A.D. 2020-Jan-12 00:00:00.0000,  7.692856063118733E-02,  3.823934974857019E+08,  1.059104923896134E+01,  8.030043003257354E+01,  7.380053036045348E+01, -5.359462332250632E+07,  2.475515626892662E-06,  1.326743275522903E+02,  1.387467787472976E+02,  4.142620832762185E+08,  4.461306690667350E+08,  1.454242486248743E+08,
2458861.500000000, A.D. 2020-Jan-13 00:00:00.0000,  7.693350067116839E-02,  3.823899298900043E+08,  1.059102851050980E+01,  8.030035778790167E+01,  7.379975439293284E+01, -5.368092119010659E+07,  2.475530398088689E-06,  1.328887522035121E+02,  1.389391489146386E+02,  4.142604353727958E+08,  4.461309408555872E+08,  1.454233808956454E+08,
2458862.500000000, A.D. 2020-Jan-14 00:00:00.0000,  7.693844647047858E-02,  3.823863544919263E+08,  1.059100779153798E+01,  8.030028504344500E+01,  7.379897772362980E+01, -5.376721846903946E+07,  2.475545222189110E-06,  1.331031807914287E+02,  1.391314511553724E+02,  4.142587815837319E+08,  4.461312086755375E+08,  1.454225100689754E+08,
2458863.500000000, A.D. 2020-Jan-15 00:00:00.0000,  7.694339787035936E-02,  3.823827714697120E+08,  1.059098708320604E+01,  8.030021180168166E+01,  7.379820051548414E+01, -5.385351511330567E+07,  2.475560098104360E-06,  1.333176131571596E+02,  1.393236856000971E+02,  4.142571220307543E+08,  4.461314725917966E+08,  1.454216362089804E+08,
2458864.500000000, A.D. 2020-Jan-16 00:00:00.0000,  7.694835472253847E-02,  3.823791809931536E+08,  1.059096638670715E+01,  8.030013806527516E+01,  7.379742292728967E+01, -5.393981107745572E+07,  2.475575024784696E-06,  1.335320491449542E+02,  1.395158523836642E+02,  4.142554568311436E+08,  4.461317326691335E+08,  1.454207593774338E+08,
2458865.500000000, A.D. 2020-Jan-17 00:00:00.0000,  7.695331689019706E-02,  3.823755832231826E+08,  1.059094570326772E+01,  8.030006383707914E+01,  7.379664511442236E+01, -5.402610631622776E+07,  2.475590001220279E-06,  1.337464886013172E+02,  1.397079516444437E+02,  4.142537860977247E+08,  4.461319889722669E+08,  1.454198796337630E+08,
2458866.500000000, A.D. 2020-Jan-18 00:00:00.0000,  7.695828424875817E-02,  3.823719783116505E+08,  1.059092503414669E+01,  8.029998912013885E+01,  7.379586722980207E+01, -5.411240078411103E+07,  2.475605026440142E-06,  1.339609313738888E+02,  1.398999835233556E+02,  4.142521099389824E+08,  4.461322415663143E+08,  1.454189970351090E+08,
2458867.500000000, A.D. 2020-Jan-19 00:00:00.0000,  7.696325668666197E-02,  3.823683664011984E+08,  1.059090438063437E+01,  8.029991391769073E+01,  7.379508942511083E+01, -5.419869443481320E+07,  2.475620099510326E-06,  1.341753773100420E+02,  1.400919481626491E+02,  4.142504284592689E+08,  4.461324905173394E+08,  1.454181116364370E+08,
2458868.500000000, A.D. 2020-Jan-20 00:00:00.0000,  7.696823410574900E-02,  3.823647476255132E+08,  1.059088374404944E+01,  8.029983823315551E+01,  7.379431185240109E+01, -5.428498722061326E+07,  2.475635219529877E-06,  1.343898262550795E+02,  1.402838457042979E+02,  4.142487417592512E+08,  4.461327358929892E+08,  1.454172234907710E+08,
2458869.500000000, A.D. 2020-Jan-21 00:00:00.0000,  7.697321642150047E-02,  3.823611221097732E+08,  1.059086312573519E+01,  8.029976207012785E+01,  7.379353466602217E+01, -5.437127909160545E+07,  2.475650385625528E-06,  1.346042780500862E+02,  1.404756762880790E+02,  4.142470499365038E+08,  4.461329777632344E+08,  1.454163326495062E+08,
2458870.500000000, A.D. 2020-Jan-22 00:00:00.0000,  7.697820356269020E-02,  3.823574899716603E+08,  1.059084252705327E+01,  8.029968543235627E+01,  7.379275802507968E+01, -5.445756999479255E+07,  2.475665596943291E-06,  1.348187325292392E+02,  1.406674400491308E+02,  4.142453530864474E+08,  4.461332162012344E+08,  1.454154391629034E+08,
2458871.500000000, A.D. 2020-Jan-23 00:00:00.0000,  7.698319547039764E-02,  3.823538513229672E+08,  1.059082194937505E+01,  8.029960832371336E+01,  7.379198209643963E+01, -5.454385987302813E+07,  2.475680852636815E-06,  1.350331895165612E+02,  1.408591371149747E+02,  4.142436513036471E+08,  4.461334512843270E+08,  1.454145430807726E+08,
2458872.500000000, A.D. 2020-Jan-24 00:00:00.0000,  7.698819209622411E-02,  3.823502062719185E+08,  1.059080139407017E+01,  8.029953074815430E+01,  7.379120705830495E+01, -5.463014866381143E+07,  2.475696151852017E-06,  1.352476488221016E+02,  1.410507676019764E+02,  4.142419446835274E+08,  4.461336830951362E+08,  1.454136444533758E+08,
2458873.500000000, A.D. 2020-Jan-25 00:00:00.0000,  7.699319339936177E-02,  3.823465549265007E+08,  1.059078086249107E+01,  8.029945270965892E+01,  7.379043310454422E+01, -5.471643629789852E+07,  2.475711493706535E-06,  1.354621102373688E+02,  1.412423316110726E+02,  4.142402333246632E+08,  4.461339117228258E+08,  1.454127433326339E+08,
